ONEWEB-0674             
1 55833U 23029AP  24208.33555827 -.00000168  00000+0 -48687-3 0  9996
2 55833  87.8933  67.1609 0002295  74.1681 285.9702 13.14503070 69336
ONEWEB-0675             
1 55834U 23029AQ  24208.89533516 -.00000036  00000+0 -12268-3 0  9999
2 55834  87.9126  82.3315 0001479  88.3027 271.8275 13.19724565 67874
ONEWEB-0720             
1 55835U 23029AR  24208.88743685  .00000051  00000+0  94810-4 0  9998
2 55835  87.9125  82.3334 0001677  62.9119 297.2185 13.19726145 67794
ONEWEB-0537             
1 56046U 23043A   24209.14220516  .00000106  00000+0  24303-3 0  9992
2 56046  87.9118   6.1439 0001760 105.0917 255.0409 13.16595220 69078
ONEWEB-0538             
1 56047U 23043B   24209.13587189  .00000124  00000+0  28953-3 0  9999
2 56047  87.9118   6.1651 0001499  96.8788 263.2514 13.16594390 69083
ONEWEB-0546             
1 56048U 23043C   24208.74323095  .00000052  00000+0  10187-3 0  9990
2 56048  87.9120   6.2078 0002252 115.2022 244.9343 13.16593995 68115
ONEWEB-0547             
1 56049U 23043D   24208.89819401  .00000207  00000+0  46964-3 0  9992
2 56049  87.9286  21.3962 0001587  91.6644 268.4671 13.21826670 67036
ONEWEB-0548             
1 56050U 23043E   24208.84454989 -.00000090  00000+0 -27000-3 0  9997
2 56050  87.9118   6.2306 0002313  85.1679 274.9716 13.16594425 68127
